{"type":"FeatureCollection","features":[{"geometry":{"coordinates":[-71.095487,42.362945],"crs":{"properties":{"name":"EPSG:4326"},"type":"name"},"type":"Point"},"properties":{"name":"Robert Vose","description":"724 Main St.\n\nBlack residents:\n1 resident, unknown to us\n\nAddress note:\nRobert Vose was part of a business partnership with Royal Makepeace that bought and developed a lot of property in Cambridgeport. At this address Vose and Makepeace built both a store and a dwelling house a few years before 1800. We were unable to determine which of his properties Vose occupied, but in order to include him on this map we have marked him here. ","Black residents in all years":"1800: 1 person","Historic Address":"Causeway","felt:clipSource":{},"felt:color":"#E76D02","felt:hasLongDescription":true,"felt:id":"JgiEsZwYSSyy9BCYQS49BmzB","felt:locked":false,"felt:ordering":1698166358116463,"felt:parentId":"TS2GTcTBS4m5HpU1SGwE9BC","felt:radiusDisplayAngle":90,"felt:symbol":"dot","felt:type":"Place","felt:widthScale":1},"type":"Feature"},{"geometry":{"coordinates":[-71.129749,42.39702],"crs":{"properties":{"name":"EPSG:4326"},"type":"name"},"type":"Point"},"properties":{"name":"Henry Dickenson","description":"2394 Massachusetts Ave.\n\nBlack Residents:\n1 resident, unknown to us\n\nAddress note: The census lists Henry Dickenson, but there are no other records of Dickensons in Cambridge in 1810. There was a Henry Dickson at this address until his death in 1815.","Black residents in all years":"1800: 1 person","felt:clipSource":{},"felt:color":"#E76D02","felt:hasLongDescription":true,"felt:id":"1Ss7OA1JTHOo9BGLowm35QB","felt:locked":false,"felt:ordering":1698166358126463,"felt:parentId":"TS2GTcTBS4m5HpU1SGwE9BC","felt:radiusDisplayAngle":90,"felt:symbol":"dot","felt:type":"Place","felt:widthScale":1},"type":"Feature"},{"geometry":{"coordinates":[-71.11029,42.369275],"crs":{"properties":{"name":"EPSG:4326"},"type":"name"},"type":"Point"},"properties":{"name":"Judge Francis Dana","description":"975 Massachusetts Ave.\n\nBlack Residents:\nDinah (c.1746 -1802)\n1 other, unknown to us.\n\nJudge Francis Dana was a big--and wealthy--political figure of the time, and likely had servants living in his house. Christ Church recorded that a woman named Dinah, listed as \"a negro at Judge Dana's,\" died at age 56 in 1802, suggesting that she was one of the two Black people living with Dana in 1800. We were unable to find any other personal details about Dinah, other than that she passed away of cancer. \n","Black residents in all years":"1800: 2 people","Image credit":"\"Perspective View of the Seat of the Hon. Francis Dana, Cambridge,\" date unknown. Harvard University Archives, HUC 8782.514 (126).","felt:clipSource":{},"felt:color":"#E76D02","felt:hasLongDescription":true,"felt:id":"IGVzx1BpS2ikP41eSjn2fB","felt:locked":false,"felt:mapImageId":"19b1375c-6108-4cf6-bbe8-9c4bf1661f49","felt:ordering":1698166358136463,"felt:parentId":"TS2GTcTBS4m5HpU1SGwE9BC","felt:radiusDisplayAngle":90,"felt:symbol":"dot","felt:type":"Place","felt:widthScale":1},"type":"Feature"},{"geometry":{"coordinates":[-71.121464,42.375491],"crs":{"properties":{"name":"EPSG:4326"},"type":"name"},"type":"Point"},"properties":{"name":"Peter Waters","description":"12 Appian Way\n\nBlack Residents:\nPeter Waters (fl. 1776-1810)\nVilate (Lock) Waters (fl. 1790-1810)\n\nPeter Waters started working at Harvard College in 1789, and was living with his employer, Caleb Gannett, until early 1790 (see 1 Oxford St. for more on Gannett and Waters' colleague Pompey Parsons). In a document reporting \"strangers\" (people not born in Cambridge) living with him, Caleb Gannett gave a short biography of Waters. According to Gannett, Waters was born in Maryland, fought in the Revolutionary War, and then lived in Newton, MA, until 1789. Waters married Vilate Lock (of Newton) in 1790, at which point they moved into a house of their own at this address, and had a child who died aged 2 in 1792. It is likely that these are the 3 listed in the 1790 census. Vital records indicate that a 9-year-old Black girl named Christina Waters died in 1812. We are not certain, but we believe that Christina was Peter and Vilate's daughter listed with them in the 1810 census. There is no Peter Waters in the 1800 census, but there is a Bettern Waters with a household of 2 Black people. It may seem odd, but we believe this to have been a misspelling of Peter as there are no other records of anyone named Bettern in Cambridge, and this would have been before Christina was born. \n\nAddress notes: Waters bought this property in 1801 and owned it until 1810. In 1806 he bought another property at 1531 Mass. Ave. We are not sure precisely where he was living in 1790 or 1800. \n\nSee 1531 Massachusetts Ave. for Peter's 1810 address.\n","Black residents in all years":"1790: 3 people;\n1800: 2 people; \n1810: 3 people","felt:clipSource":{},"felt:color":"#2674BA","felt:hasLongDescription":true,"felt:id":"HRAAqDrfTzyFoK6LezxXrA","felt:locked":false,"felt:ordering":1698172832542149,"felt:parentId":"TS2GTcTBS4m5HpU1SGwE9BC","felt:radiusDisplayAngle":90,"felt:symbol":"dot","felt:type":"Place","felt:widthScale":1},"type":"Feature"}]}