{
"type": "FeatureCollection",
"name": "census1790",
"crs": { "type": "name", "properties": { "name": "urn:ogc:def:crs:OGC:1.3:CRS84" } },
"features": [
{ "type": "Feature", "properties": { "Census year": 1790, "Address": "42 Brattle St.", "City": "Cambridge", "State": "MA", "Country": "USA", "Historic Address": null, "Property Owner": "Thomas Brattle Esq.", "Head of Household": "Thomas Brattle Esq.", "Black Head of Household": "White Head of Household", "Black Residents": "1790: 3 people", "Possible Names of Black Residents": "Dinah", "1820 demographic breakdown": "N/A", "Address Notes": "This address, today known as the William Brattle House, is currently owned by the Cambridge Center for Adult Education and may be visited by the public. The house was built in 1727 by William Brattle, a Loyalist who abandoned his property during the Revolutionary War. His son, Thomas Brattle, was allowed to reclaim the property in 1784 and lived there until his death in 1801.", "Biographical Notes": "One of the people living with Brattle was likely Dinah, a Black woman who died \"at a very advanced age\" in 1798. In her death record, she is named as Thomas Brattle's servant. We have not found records indicating who the other two Black people in the household might have been.", "Latitude": 42.37367, "Longitude": -71.1216286 }, "geometry": { "type": "Point", "coordinates": [ -71.1216286, 42.37367 ] } },
{ "type": "Feature", "properties": { "Census year": 1790, "Address": "1656 Massachusetts Ave.", "City": "Cambridge", "State": "MA", "Country": "USA", "Historic Address": null, "Property Owner": "Anthony Vassall", "Head of Household": "Anthony Vassall", "Black Head of Household": "Black Head of Household", "Black Residents": "1790: 5 people", "Possible Names of Black Residents": "Anthony Vassall (c. 1713-1811)\nCuba Vassall (c. 1734-1812)", "1820 demographic breakdown": "N/A", "Address Notes": "Address note: Anthony Vassall bought this property in 1787 (and fully paid off his mortgage in 1791). His daughter Catherine (sometimes Catharine or Katherine) inherited it upon his death in 1811. Catherine and her husband Adam Lewis sold the property in 1816. See 15 Concord Ave. for Adam and Catherine Lewis's later property.", "Biographical Notes": "If you are familiar with Cambridge Black history, you have likely come across the Vassall family. Anthony (Tony) Vassall and his wife Cuba had both been enslaved by Henry Vassall. Tony and Cuba’s six children, James (c. 1750s-unknown), Dorrenda (unknown-1784), Flora (1767-c.1815), Darby (1769-1861), Cyrus (1771-1812), and Catherine (fl. 1790-1830), were all born into slavery. The family was separated several times at the whim of their enslavers, who would sell or trade enslaved people to cover their debts. Tony made several well-documented attempts to emancipate himself and his family, including traveling to Billerica to pay £20 to free his 5-year-old daughter Flora in 1772. During the Revolutionary War, the white Vassalls, wealthy Loyalists, fled to England, leaving the people they enslaved behind. Tony and Cuba worked to reunite their family while living in a small house on the John Vassall estate, which also included the Longfellow House/Washington’s Headquarters (now a National Historic Site). Their son Darby notably refused to work without compensation for George Washington while his army was based there, an example of his self-confidence that carried through as he and some of his siblings became leaders in the abolitionist and Black rights movements in Boston in the late 1700s. Through some complicated and drawn out negotiations made possible in part by the turmoil of the Revolutionary War but more by Tony’s persistence and savviness, Tony was able to secure his family’s freedom and financial security by the 1780s. Tony and Cuba lived in this house at 1656 Massachusetts Avenue until their deaths in 1811 and 1812 respectively. In the 1790 census, they were living with three other individuals. Dorrenda had died by the time this census was taken, and Flora had already married in Boston. James, Cyrus, Darby, and Catherine were all unmarried at this time, so while we cannot be certain who was living with Tony and Cuba, it seems likely that it was some of their adult children. Interestingly, Tony and Cuba's family does not appear in the 1800 or 1810 census, though we know they were both still living. ", "Latitude": 42.3818512, "Longitude": -71.1201261 }, "geometry": { "type": "Point", "coordinates": [ -71.1201261, 42.3818512 ] } },
{ "type": "Feature", "properties": { "Census year": 1790, "Address": "10 Linden St.", "City": "Cambridge", "State": "MA", "Country": "USA", "Historic Address": null, "Property Owner": "Leonard Vassal Borland", "Head of Household": "Jonathan Simpson Jr.", "Black Head of Household": "White Head of Household", "Black Residents": "1790: 1 person", "Possible Names of Black Residents": null, "1820 demographic breakdown": "N/A", "Address Notes": "This house, called both the Adams House and the Apthorp House and owned by Harvard University, is still standing at this address. The house on this property was described as a \"mansion house\" in a 1787 deed, suggesting the employment of servants.", "Biographical Notes": "We could not find any information about the Black resident at this address.", "Latitude": 42.3721899, "Longitude": -71.1170115 }, "geometry": { "type": "Point", "coordinates": [ -71.1170115, 42.3721899 ] } },
{ "type": "Feature", "properties": { "Census year": 1790, "Address": "45 Dunster St.", "City": "Cambridge", "State": "MA", "Country": "USA", "Historic Address": "Spring Street", "Property Owner": "Ebenezer Stedman", "Head of Household": "Ebenezer Stedman", "Black Head of Household": "White Head of Household", "Black Residents": "1790: 1 person", "Possible Names of Black Residents": "Anningdene (c. 1728-1798)", "1820 demographic breakdown": null, "Address Notes": "This property is on the corner of Mt. Auburn and Dunster Sts. It is now 45 Dunster but it was 82-88 Mt. Auburn. 88 Mt. Auburn St. was a tavern.", "Biographical Notes": "We believe the person listed living with Stedman was named Anningdene. Anningdene's death appears in Christ Church's records in 1798. She was 70 years old, and described as \"Mr. Stedman's.\" From a 1749 record of enslavers in Cambridge, we know the Stedman family enslaved at least one person. It seems possible that Anningdene was this person and that she later continued to live in the Stedman household after the end of slavery.", "Latitude": 42.3721786, "Longitude": -71.1196006 }, "geometry": { "type": "Point", "coordinates": [ -71.1196006, 42.3721786 ] } },
{ "type": "Feature", "properties": { "Census year": 1790, "Address": "159 Brattle St.", "City": "Cambridge", "State": "MA", "Country": "USA", "Historic Address": null, "Property Owner": "Joseph Lee Esq.", "Head of Household": "Joseph Lee Esq.", "Black Head of Household": "White Head of Household", "Black Residents": "1790: 4 people", "Possible Names of Black Residents": "Cesar (unknown-d. after 1802)", "1820 demographic breakdown": null, "Address Notes": null, "Biographical Notes": "We know that Joseph Lee had at least one Black servant in the years leading up to 1790; in 1789, Christ Church recorded the death of a Black man named Mark who was \"in service of Judge Lee.\" We believe that the four black residents of this household were likely either servants or former servants. We believe we know the name of one of these residents, a man called Cesar. When Joseph Lee died in 1802, he included Cesar in his will, describing Cesar as \"an old and faithful servant, formerly in my father's family now in mine,\" and asked that Cesar be provided with \"all things necessary and suitable to his condition.\" It seems likely, therefore,  that Cesar was one of the Black people listed as part of Joseph Lee's household in 1790. The names of the other three people remain unknown to us.", "Latitude": 42.3776061, "Longitude": -71.1341986 }, "geometry": { "type": "Point", "coordinates": [ -71.1341986, 42.3776061 ] } },
{ "type": "Feature", "properties": { "Census year": 1790, "Address": "145 Brattle St.", "City": "Cambridge", "State": "MA", "Country": "USA", "Historic Address": null, "Property Owner": "Thomas Lee Esq.", "Head of Household": "Thomas Lee Esq.", "Black Head of Household": "White Head of Household", "Black Residents": "1790: 3 people", "Possible Names of Black Residents": null, "1820 demographic breakdown": null, "Address Notes": null, "Biographical Notes": "We could not find any information about about the Black residents at this address.", "Latitude": 42.3782209, "Longitude": -71.1307546 }, "geometry": { "type": "Point", "coordinates": [ -71.1307546, 42.3782209 ] } },
{ "type": "Feature", "properties": { "Census year": 1790, "Address": "1531 Massachusetts Ave.", "City": "Cambridge", "State": "MA", "Country": "USA", "Historic Address": null, "Property Owner": "Peter Waters", "Head of Household": "Peter Waters", "Black Head of Household": "Black Head of Household", "Black Residents": "1790: 3 people;\n1800: 2 people; \n1810: 3 people", "Possible Names of Black Residents": "Peter Waters (fl. 1776-1810)\nVilate (Lock) Waters (fl. 1790-1810)\ninfant Waters (c.1790-1792), name unknown to us", "1820 demographic breakdown": "N/A", "Address Notes": "Waters bought this property in 1801 and owned it until 1810. In 1806 he bought another property at 1531 Mass. Ave. We are not sure precisely where he was living in 1790 or 1800. See 1531 Massachusetts Ave. for Peter's 1810 address.", "Biographical Notes": "Peter Waters started working at Harvard College in 1789, and was living with his employer, Caleb Gannett, until early 1790 (see 1 Oxford St. for more on Gannett and Waters' colleague Pompey Parsons). In a document reporting \"strangers\" (people not born in Cambridge) living with him, Caleb Gannett gave a short biography of Waters. According to Gannett, Waters was born in Maryland, fought in the Revolutionary War, and then lived in Newton, MA, until 1789. Waters married Vilate Lock (of Newton) in 1790, at which point they moved into a house of their own at this address, and had a child who died aged 2 in 1792. It is likely that these are the 3 listed in the 1790 census. Vital records indicate that a 9-year-old Black girl named Christina Waters died in 1812. We are not certain, but we believe that Christina was Peter and Vilate's daughter listed with them in the 1810 census. There is no Peter Waters in the 1800 census, but there is a Bettern Waters with a household of 2 Black people. It may seem odd, but we believe this to have been a misspelling of Peter as there are no other records of anyone named Bettern in Cambridge, and this would have been before Christina was born. ", "Latitude": 42.3775552, "Longitude": -71.1196283 }, "geometry": { "type": "Point", "coordinates": [ -71.1196283, 42.3775552 ] } },
{ "type": "Feature", "properties": { "Census year": 1790, "Address": "42 Kennedy St.", "City": "Cambridge", "State": "MA", "Country": "USA", "Historic Address": "Wood Street", "Property Owner": "William and Catherine Watson", "Head of Household": "William and Catherine Watson", "Black Head of Household": "White Head of Household", "Black Residents": "1790: 1 person;\n1810: 1 person;\n1820: 1 person", "Possible Names of Black Residents": null, "1820 demographic breakdown": "1 female aged 45+", "Address Notes": "William Watson owned several properties in Cambridge. We believe that the family--first listed under William Watson in 1790 and 1810 and then under his wife, Catherine Watson, in 1820--was residing at this address on what is now JFK Street, on a homestead formerly owned by William's maternal grandfather Deacon Samuel Whittemore (1693-1784). The Whittemore family had been enslavers; Samuel Whittemore reported one enslaved person in his 1749 tax records. ", "Biographical Notes": "We are fairly certain that the Black woman living with the Watsons was named Venus Whittemore. A death notice for Venus Whittemore appeared in local papers in 1825, describing her as a \"colored woman, aged 107.\" This is a surprising age, and is likely a rough estimate; older people of this time–especially formerly enslaved people–often did not know their date of birth. Venus died at the Cambridge Alms-House, but there is no Black woman of her age reported at the Alms-House in the 1820 census. Instead, we suspect that she was living either with or on the property of Catherine Watson. Catherine's late husband, William Watson, had purchased Venus' labor at a Poor Auction in 1793. Furthermore, in exchange for the costs of her care, he also received a large tract of land in Cambridgeport. Many formerly enslaved people found themselves at Poor Auctions after slavery ended in Massachusetts in 1783– they were no longer legally enslaved, yet they lacked the resources to move out from under their former enslavers. Venus Whittemore was previously enslaved by Deacon Samuel Whittemore, William Watson’s maternal grandfather. William died in 1811, and it seems that his death brought even more instability to Venus’ life. In 1818, Catherine Watson attempted to force the City of Cambridge to compensate her for the cost of supporting Venus, an argument which can be read in the Massachusetts Supreme Court records. At this time, Venus was reported to be 90 years old. The court sided with Catherine, ruling that the City did owe Catherine money for the support of Venus, but then posited that William Watson’s estate (which Catherine neither controlled nor inherited) may be the party responsible for Venus’ care rather than the City itself. There is no indication in the court’s ruling about whether Venus would continue to live under the support of Catherine or not, but it seems likely that she was still with Catherine at the time of the 1820 census and moved to the Alms-house sometime before her death in 1825.", "Latitude": 42.3725644, "Longitude": -71.120154 }, "geometry": { "type": "Point", "coordinates": [ -71.120154, 42.3725644 ] } },
{ "type": "Feature", "properties": { "Census year": 1790, "Address": "50 Kennedy St.", "City": "Cambridge", "State": "MA", "Country": "USA", "Historic Address": "Wood Street", "Property Owner": "Thaddeus Mason", "Head of Household": "Thaddeus Mason", "Black Head of Household": "White Head of Household", "Black Residents": "1790: 3 people", "Possible Names of Black Residents": "Belinda (c. 1759-1799)\nSylvia Mason? (c.1778-1798)", "1820 demographic breakdown": null, "Address Notes": null, "Biographical Notes": "Christ Church's records gave us two possible names linked to Thaddeus Mason. The first is more concrete: the records show the death of a 40-year-old Black woman named Belinda in 1799. Next to her name, it reads, \"Lived with T. Mason.\" Given that Thaddeus was a member of the only white Mason family living in Cambridge at the time, it seems likely that T. Mason refers to him. The second is more speculative: a young woman named Sylvia Mason, listed as a \"mulatto,\" died at age 20 in 1798. Because of her last name, we wonder if she and/or her parents may have been previously enslaved by the white Mason family. Of course, Mason is not an uncommon name, so it is also possible that Sylvia had no connection to Thaddeus. We do know that Thaddeus Mason, Sylvia Mason, and Belinda all attended Christ Church.", "Latitude": 42.3720089, "Longitude": -71.1203795 }, "geometry": { "type": "Point", "coordinates": [ -71.1203795, 42.3720089 ] } },
{ "type": "Feature", "properties": { "Census year": 1790, "Address": "1 Oxford St.", "City": "Cambridge", "State": "MA", "Country": "USA", "Historic Address": "4 Holmes Place", "Property Owner": "Caleb Gannett (Gannitt)", "Head of Household": "Caleb Gannett (Gannitt)", "Black Head of Household": "White Head of Household", "Black Residents": "1790: 1 person", "Possible Names of Black Residents": "Pompey Parsons (c. 1748-unknown)", "1820 demographic breakdown": null, "Address Notes": "Gannett's house was on Holmes Place. The street was removed in 1938 and replaced with the Harvard Science Center Plaza. ", "Biographical Notes": "Caleb Gannett (sometimes Gannitt) was the steward at Harvard College from 1779 to 1818, and he would often house people he had hired to work at the college in his home. In March 1790, fulfilling a requirement to notify the town clerk of \"strangers\" (people not born in Cambridge) in one's household, Gannett reported 5 employees living with him. Two were Black: Peter Waters and Pompey Parsons. Waters appears in the 1790 census as a head of household (see 1531 Mass. Ave.), whereas Parsons does not, suggesting that Waters moved out before the census was taken while Parsons was still living with Caleb Gannett. In his \"strangers\" report, Gannett included an unusual amount of detail about Parsons's pre-Cambridge life. Gannett describes Parsons being \"brought from Africa\" at 10 years old, which almost certainly means that he was kidnapped and sold into slavery as a child. At first, Parsons was enslaved by the Rev. Parsons in Bradford for 2-3 years, then he was transferred to be \"under the care of\" Dr. Scott in Boston until he was 21 years old. He stayed in Boston until February 1790 when, at age 42, he moved in with Gannett as an employee at Harvard. ", "Latitude": 42.3761264, "Longitude": -71.1171174 }, "geometry": { "type": "Point", "coordinates": [ -71.1171174, 42.3761264 ] } }
]
}
