{"type":"FeatureCollection","features":[{"geometry":{"coordinates":[-71.121625,42.373674],"crs":{"properties":{"name":"EPSG:4326"},"type":"name"},"type":"Point"},"properties":{"name":"Josiah Marshall","description":"42 Brattle St.\n\nBlack Residents:\n1 resident, unknown to us","Black residents in all years":"1810: 1 person","felt:clipSource":{},"felt:color":"#E76D02","felt:hasLongDescription":false,"felt:id":"Cjv1MgYxRH2sXJaBeLYwmD","felt:locked":false,"felt:ordering":1698165833829837,"felt:parentId":"eWVsgSJZTmG7Ss9Ao9Bby9CxB","felt:radiusDisplayAngle":90,"felt:symbol":"dot","felt:type":"Place","felt:widthScale":1},"type":"Feature"},{"geometry":{"coordinates":[-71.120008,42.377556],"crs":{"properties":{"name":"EPSG:4326"},"type":"name"},"type":"Point"},"properties":{"name":"Peter Waters","description":"1531 Massachusetts Ave.\n\nBlack Residents:\nPeter Waters (fl. 1776-1810)\nVilate (Lock) Waters (fl. 1790-1810)\nChristina Waters (1803-1812)\n\nPeter Waters started working at Harvard College in 1789, and was living with his employer, Caleb Gannett, until early 1790 (see 1 Oxford St. for more about Gannett and about Waters' colleague Pompey Parsons). In a document reporting \"strangers\" (people not born in Cambridge) living with him, Caleb Gannett gave a short biography of Waters. According to Gannett, Waters was born in Maryland, fought in the Revolutionary War, and then lived in Newton, MA until 1789. Waters married Vilate Lock (of Newton) in 1790, at which point they moved into a house of their own at this address, and had a child who died aged 2 in 1792. It is likely that these are the 3 listed in the 1790 census. Vital records indicate that a 9-year-old Black girl named Christina Waters died in 1812. We are not certain, but we believe that Christina was Peter and Vilate's daughter listed with them in the 1810 census. There is no Peter Waters in the 1800 census, but there is a Bettern Waters with a household of 2 Black people. It may seem odd, but we believe this to have been a misspelling of Peter as there are no other records of anyone named Bettern in Cambridge, and this would have been before Christina was born. \n\nAddress note: \nWaters bought this property in 1806. From 1801 to 1810 Waters also owned a piece of land with a house and barn at 12 Appian Way. We are not sure where he was living in 1790 or 1800.\n\nSee 12 Appian Way for Peter Waters' other address.","Black residents in all years":"1790: 3 people;\n1800: 2 people; \n1810: 3 people","felt:clipSource":{},"felt:color":"#2674BA","felt:hasLongDescription":true,"felt:id":"Oe09ARKdWTlqhTxCdzxrshD","felt:locked":false,"felt:ordering":1698165833832696,"felt:parentId":"eWVsgSJZTmG7Ss9Ao9Bby9CxB","felt:radiusDisplayAngle":90,"felt:symbol":"dot","felt:type":"Place","felt:widthScale":1},"type":"Feature"},{"geometry":{"coordinates":[-71.12015,42.37258],"crs":{"properties":{"name":"EPSG:4326"},"type":"name"},"type":"Point"},"properties":{"name":"William and Catherine Watson","description":" 42 JFK St.\n\nBlack Residents:\nVenus Whittemore (c. 1725-1825)\n\nWe are fairly certain that the Black woman living with the Watsons was named Venus Whittemore. A death notice for Venus Whittemore appeared in local papers in 1825, describing her as a \"colored woman, aged 107.\" This is a surprising age, and is likely a rough estimate; older people of this time–especially formerly enslaved people–often did not know their date of birth. Venus died at the Cambridge Alms-House, but there is no Black woman of her age reported at the Alms-House in the 1820 census. Instead, we suspect that she was living either with or on the property of Catherine Watson. Catherine's late husband, William Watson, had purchased Venus's labor at a Poor Auction in 1793. Furthermore, in exchange for the costs of her care, he also received a large tract of land in Cambridgeport. Many formerly enslaved people found themselves at Poor Auctions after slavery ended in Massachusetts in 1783– they were no longer legally enslaved, yet they lacked the resources to move out from under their former enslavers. Venus Whittemore was previously enslaved by Deacon Samuel Whittemore, William Watson’s maternal grandfather. William died in 1811, and it seems that his death brought even more instability to Venus’s life. In 1818, Catherine Watson attempted to force Cambridge to compensate her for the cost of supporting Venus, an argument which can be read in the Massachusetts Supreme Court records. At this time, Venus was reported to be 90 years old. The court sided with Catherine, ruling that Cambridge did owe Catherine money for the support of Venus, but then posited that William Watson’s estate (which Catherine neither controlled nor inherited) may be the party responsible for Venus’ care rather than Cambridge. There is no indication in the court’s ruling that Venus would continue to live under the support of Catherine, but it seems likely that she was still with Catherine at the time of the 1820 census and moved to the Alms-house sometime before her death in 1825.\n\nAddress notes:\nWilliam Watson owned several properties in Cambridge. We believe that the family--first listed under William Watson in 1790 and 1810 and then under his wife, Catherine Watson, in 1820--was residing at this address on what is now JFK Street, on a homestead formerly owned by William's maternal grandfather Deacon Samuel Whittemore (1693-1784). The Whittemore family had been enslavers; Samuel Whittemore reported one enslaved person in his 1749 tax records.\n","Black residents in all years":"1790: 1 person;\n1810: 1 person;\n1820: 1 person","Historic Address":"Wood Street","felt:clipSource":{},"felt:color":"#E76D02","felt:hasLongDescription":true,"felt:id":"jhP9B6eTxTD9BWBBMUUItk9CB","felt:locked":false,"felt:ordering":1698165833833618,"felt:parentId":"eWVsgSJZTmG7Ss9Ao9Bby9CxB","felt:radiusDisplayAngle":90,"felt:symbol":"dot","felt:type":"Place","felt:widthScale":1},"type":"Feature"},{"geometry":{"coordinates":[-71.138354,42.375462],"crs":{"properties":{"name":"EPSG:4326"},"type":"name"},"type":"Point"},"properties":{"name":"Elbridge Gerry","description":"33 Elmwood Ave.\n\nBlack Residents:\n1 resident, unknown to us (possibly Buff, Cato, Jerry, Joffrey, Mira, Jude, Sarah, Jenny, Violet, or Young Jerry?)\n\nThis census listing reads \"Elbridge Garvey,\" but we have concluded that this was most likely Elbridge Gerry, founding father, Massachusetts governor, and vice president to James Madison. We found no Garveys living in Cambridge in this time period, while we know that Gerry was living in Cambridge but did not appear otherwise in the census. \n\nAddress Note: Gerry's house was previously owned by Thomas Oliver, who was the largest enslaver in Cambridge. Oliver enslaved at least 11 people: Buff, Cato, Jerry, Joffrey, Samuel, Mira, Jude, Sarah, Jenny, Violet, and Young Jerry. As a Loyalist, Oliver fled Cambridge during the Revolutionary War and seems to have left behind ten of those listed above; Samuel was the only one to go with Oliver to London, where he became a paid footman. It is unclear what happened to these enslaved people after Oliver fled, but it is possible that some stayed in Cambridge and lived in other houses.\n","Black residents in all years":"1810: 1 person","felt:clipSource":{},"felt:color":"#E76D02","felt:hasLongDescription":true,"felt:id":"9A7gCLOETSq24MZd5N32i1C","felt:locked":false,"felt:ordering":1698165833835001,"felt:parentId":"eWVsgSJZTmG7Ss9Ao9Bby9CxB","felt:radiusDisplayAngle":90,"felt:symbol":"dot","felt:type":"Place","felt:widthScale":1},"type":"Feature"},{"geometry":{"coordinates":[-71.09882,42.363927],"crs":{"properties":{"name":"EPSG:4326"},"type":"name"},"type":"Point"},"properties":{"name":"Samuel P. P. Fay","description":"21 Bishop Allen Dr.\n\nBlack residents:\n1 resident, unknown to us\n\nSee 139 Bishop Allen Dr. for Samuel P. P. Fay in 1820.","Black residents in all years":"1810: 1 person; \n1820: 1 person","Historic address":"Austin St","felt:clipSource":{},"felt:color":"#E76D02","felt:hasLongDescription":false,"felt:id":"An9AsIaiKQL9BSC6ISnaDNYC","felt:locked":false,"felt:ordering":1698165833836376,"felt:parentId":"eWVsgSJZTmG7Ss9Ao9Bby9CxB","felt:radiusDisplayAngle":90,"felt:symbol":"dot","felt:type":"Place","felt:widthScale":1},"type":"Feature"},{"geometry":{"coordinates":[-71.105138,42.370734],"crs":{"properties":{"name":"EPSG:4326"},"type":"name"},"type":"Point"},"properties":{"name":"Camaralzaman Gould","description":"372 Broadway\n\nBlack Residents:\nCamaralzaman Gould (c. 1763-1842)\nCharlotte Gould (unknown-1839)\nCharlotte Gould (later Laws)? (1793-1861)\n2 others, unknown to us\n\n Camaralzaman Gould was born in Mashpee  c. 1763. His wife, Charlotte, was not from Massachusetts--we believe she was from New York. Gould moved around quite a bit before settling in Cambridge. He enlisted to fight in the Revolutionary War at Wareham, MA. His daughter, also Charlotte Gould (later Laws) was born in Shelbourne, Nova Scotia, Canada, in around 1797. When Gould was buying property in Cambridge (1807 and 1818), he was working as a soap boiler. We also know that Gould was an active voter in Cambridge; he appeared on an 1822 list of voters. Gould's wife, Charlotte, died in 1839, and Gould remarried to a young woman named Keziah M. Hill in Boston. They had at least two children together, Camaralzaman and James Alexander Gould. Little Camaralzaman died as an infant. The most detailed source we have concerning Gould is his probate records, in which he leaves his property at 348-350 Broadway to his only living child, Charlotte Laws. Interestingly, this property had previously been owned by Violet Cassimere, another Black landowner who appears on the census. At Charlotte Laws's death in Cambridgeport, the Boston Morning Sentinel described both Gould and Laws as \"for many years respected colored citizens of that city.\"\n\nAddress note:\nGould bought property at this address in 1807 and then expanded his property here in 1818.\n\n","Black residents in all years":"1810: 5 people; \n1820: 8 people","felt:clipSource":{},"felt:color":"#2674BA","felt:hasLongDescription":true,"felt:id":"uO4phDOSTreJuE8mCZlFHA","felt:locked":false,"felt:ordering":1698165833837831,"felt:parentId":"eWVsgSJZTmG7Ss9Ao9Bby9CxB","felt:radiusDisplayAngle":90,"felt:symbol":"dot","felt:type":"Place","felt:widthScale":1},"type":"Feature"},{"geometry":{"coordinates":[-71.122362,42.374616],"crs":{"properties":{"name":"EPSG:4326"},"type":"name"},"type":"Point"},"properties":{"name":"William Hilliard","description":"60 Brattle St.\n\nBlack Residents:\n1 resident, unknown to us","Black residents in all years":"1810: 1 person","felt:clipSource":{},"felt:color":"#E76D02","felt:hasLongDescription":false,"felt:id":"RE39CiGqrTLSE9AjmNlSgGUD","felt:locked":false,"felt:ordering":1698165833838546,"felt:parentId":"eWVsgSJZTmG7Ss9Ao9Bby9CxB","felt:radiusDisplayAngle":90,"felt:symbol":"dot","felt:type":"Place","felt:widthScale":1},"type":"Feature"},{"geometry":{"coordinates":[-71.103806,42.370235],"crs":{"properties":{"name":"EPSG:4326"},"type":"name"},"type":"Point"},"properties":{"name":"Violet Cassimere","description":"348 Broadway\n\nBlack Residents:\nViolet Cassimere (fl. 1810-1820)\nChristina Zophrion (1806-unknown)\nNancy Cassimore? (unknown-1825)\n4 others, unknown to us\n\nViolet Cassimere (also spelled Casemear/Cersmer/Casimir) is one of the more mysterious people that we encountered in this project. At first, we could only find her name in two locations: we found record of her paying a house tax (1810) and later purchasing the deed for the land at 348-350 Broadway (1812), and the vital records list an infant child of Violet Cassimere dying of dysentery in 1817. For a while, we could find no other information on Violet or her family. There was, however, a listing for the birth of a child, Christina Zophrion, in 1806--a daughter of Casimir and Violet. We wondered if our Violet Cassimere may have been married to Casimir Zophrion and later used his first name as her last name. We also noticed that Cassimere was being spelled differently in nearly every document--from Casemer to Casimir to Cersmer. This opened things up: we were soon able to find a marriage record for a Violet Gill marrying a Kerseymer Zephron in 1801 in Boston. We believe these to be the same Violet and Casimir Zophrion who were the parents of Christina Zophrion. The probate records of Fife Downs, a Black laborer who died with a considerable sum of money in 1809,  confirmed this hypothesis--his estate paid a debt of over $100 to a \"Violet Zephrion alias Cassimere.\" It appears that her husband, Casimir, had either died, left the family, or was absent for work at the time of both the 1810 and 1820 census. His name does not appear on either the house tax or deed associated with 348-350 Broadway. There is a single clue as to how Violet may have earned money in his absence: in 1807, she advertised her services  as a laundress in the Columbian Centinel. She asked to be contacted at the house of Peter Waters, another Black resident in Cambridge who appears in the censuses. Presumably Violet and Christina were living at 348-350 Broadway at the time of the 1810 and 1820 census; Christina would have been about 4 at the time of the 1810 census and about 14 at the time of the 1820 census, which fits into the demographics listed. It is less clear who the other people living with them would have been. One tentative connection is to Susan Casimere and Nancy Cassimore, both of whom died in Boston (in 1838 and 1825, respectively) and were listed as Black. Because of the rarity of Cassimere as a last name and the proximity of Boston to Cambridge, it seems possible these were Violet Cassimere's daughters. If so, Susan would have been born around 1816, making her likely present at the time of the 1820 census. Nancy's death record lists no age, so it is unclear how old she was or whether she could have been present at the Cassimere residence in 1810 or 1820.\n\nAddress note:\nCassimere bought this property in 1812, so she was living here during the 1820 census. She paid the house tax for this property in 1810, so it is very likely she was living here before she bought the property.","Black residents in all years":"1810: 7 people; \n1820: 5 people","Historic Address:":"3 West Place","felt:clipSource":{},"felt:color":"#2674BA","felt:hasLongDescription":true,"felt:id":"kjgt9BHOGSk9BIG9AUSUHClGA","felt:locked":false,"felt:ordering":1698165833839122,"felt:parentId":"eWVsgSJZTmG7Ss9Ao9Bby9CxB","felt:radiusDisplayAngle":90,"felt:symbol":"dot","felt:type":"Place","felt:widthScale":1},"type":"Feature"},{"geometry":{"coordinates":[-71.110261,42.380759],"crs":{"properties":{"name":"EPSG:4326"},"type":"name"},"type":"Point"},"properties":{"name":"Henry Ware","description":"136 Irving St.\n\nBlack Residents:\n2 residents, unknown to us (possibly members of the Lewis family?)\n\nWe were unable to determine who was living in Henry Ware's household in 1810. We do know, however, that Adam Lewis's brother Enoch Lewis lived with the Wares in 1819. It seems possible (though unlikely) that Enoch and perhaps one of his brothers lived here in 1810. See 15 Concord St. for more on Adam Lewis.\n\nAddress note: \nThis is the earliest address we have for Henry Ware, a reverend and Harvard professor. He bought this land from Harvard in 1816. We are not actually sure where he was living in 1810.\n","Black residents in all years":"1810: 2 people","felt:clipSource":{},"felt:color":"#E76D02","felt:hasLongDescription":true,"felt:id":"14qqJxPeQmGnt9Cpvph3boB","felt:locked":false,"felt:ordering":1698165833839840,"felt:parentId":"eWVsgSJZTmG7Ss9Ao9Bby9CxB","felt:radiusDisplayAngle":90,"felt:symbol":"dot","felt:type":"Place","felt:widthScale":1},"type":"Feature"},{"geometry":{"coordinates":[-71.119203,42.384293],"crs":{"properties":{"name":"EPSG:4326"},"type":"name"},"type":"Point"},"properties":{"name":"Sarah Frost","description":"1735 Massachusetts Ave.\n\nBlack Residents:\n1 resident, unknown to us","Black residents in all years":"1810: 1 person","felt:clipSource":{},"felt:color":"#E76D02","felt:hasLongDescription":false,"felt:id":"3U7W6dzPSsCaIlxjiQf9CtC","felt:locked":false,"felt:ordering":1698165833841151,"felt:parentId":"eWVsgSJZTmG7Ss9Ao9Bby9CxB","felt:radiusDisplayAngle":90,"felt:symbol":"dot","felt:type":"Place","felt:widthScale":1},"type":"Feature"},{"geometry":{"coordinates":[-71.121791,42.377846],"crs":{"properties":{"name":"EPSG:4326"},"type":"name"},"type":"Point"},"properties":{"name":"Benjamin Waterhouse","description":"7 Waterhouse St.\n\nBlack Residents:\n1 resident, unknown to us","Black residents in all years":"1810: 1 person","Image credit":"Photograph of Waterhouse house, undated. General photographic collection. PC001.02.01.USMA.0500.0030.004, DigitalID 002054. Historic New England. Accessed 20 November 2023.  https://www.historicnewengland.org/explore/collections-access/gusn/197213","felt:clipSource":{},"felt:color":"#E76D02","felt:hasLongDescription":false,"felt:id":"ItZMeZFwT9A6xY3vPtknsfC","felt:locked":false,"felt:mapImageId":"967a0306-569e-46c0-ab2f-8b3ad7e49c23","felt:ordering":1698165833841750,"felt:parentId":"eWVsgSJZTmG7Ss9Ao9Bby9CxB","felt:radiusDisplayAngle":90,"felt:symbol":"dot","felt:type":"Place","felt:widthScale":1},"type":"Feature"},{"geometry":{"coordinates":[-71.118074,42.372807],"crs":{"properties":{"name":"EPSG:4326"},"type":"name"},"type":"Point"},"properties":{"name":"James Read Jr.","description":"4 Holyoke St.\n\nBlack resident:\n1 resident, unknown to us\n\nJames Read had a Black child under the age of 14 living with him at the time of the 1820 census. This could be the same Black person living with him in 1810, although the child would have had to have been less than 4 years old in 1810. James Read was a merchant who spent time living in Tobago before returning to Cambridge in the early 1800s. See 55 Brattle St. for Read’s 1820 listing.\n\nAddress note:\nWe are unsure exactly where James Read was living at the time of the 1810 and 1820 census, although we know that he paid a house tax here in 1804. He then sold the property in 1813, at which time he bought another property at 17 Dunster St. However, we do not think he was living at Dunster street in 1820 because someone else paid the house tax on this address in 1815. We suspect James Read may have moved into the house of his late father, also James Read (d. 1814), at what is today 55 Brattle St. \n\nSee 55 Brattle St. for James Read's 1820 address.\n","Black residents in all years":"1810: 1 person\n1820: 1 person","Historic address":"Crooked Lane","felt:clipSource":{},"felt:color":"#E76D02","felt:hasLongDescription":true,"felt:id":"C4mGn9BaXTqWafYaesm6GwA","felt:locked":false,"felt:ordering":1698165833842303,"felt:parentId":"eWVsgSJZTmG7Ss9Ao9Bby9CxB","felt:radiusDisplayAngle":90,"felt:symbol":"dot","felt:type":"Place","felt:widthScale":1},"type":"Feature"},{"geometry":{"coordinates":[-71.131172,42.397012],"crs":{"properties":{"name":"EPSG:4326"},"type":"name"},"type":"Point"},"properties":{"name":"Mary Richardson","description":"9 Cedar St.\n\nBlack Residents:\n1 resident, unknown to us\n\nThere were several Mary Richardsons in Cambridge in 1810 (in fact, this Mary Richardson was listed as \"Mary Richardson 2\" in the census!). Looking more closely at the census, though, this Mary Richardson is documented with 19 people in her household, 12 of whom were aged 45+. These numbers seemed odd for a family, which led us to Mary Richardson (nee Prentice), who was the \"Wardeness\" of the Almshouse from 1802 until 1818. This Black resident was likely either a resident at or employee of the Almshouse. The Cambridge Almshouse was located at several different spots throughout this period; for its 1820 location, see 43 Essex St.\n","Black residents in all years":"1810: 1 person","felt:clipSource":{},"felt:color":"#E76D02","felt:hasLongDescription":true,"felt:id":"kxpycweETWWlwtUGuBwEkC","felt:locked":false,"felt:ordering":1698165833843649,"felt:parentId":"eWVsgSJZTmG7Ss9Ao9Bby9CxB","felt:radiusDisplayAngle":90,"felt:symbol":"dot","felt:type":"Place","felt:widthScale":1},"type":"Feature"}]}