{
"type": "FeatureCollection",
"name": "census1820",
"crs": { "type": "name", "properties": { "name": "urn:ogc:def:crs:OGC:1.3:CRS84" } },
"features": [
{ "type": "Feature", "properties": { "Census year": 1820, "Address": "372 Broadway", "City": "Cambridge", "State": "MA", "Country": "USA", "Historic Address": null, "Property Owner": "Camaralzaman Gould", "Head of Household": "Camaralzaman Gould", "Black Head of Household": "Black Head of Household", "Black Residents": "1810: 5 people; 1820: 8 people", "Possible Names of Black Residents": "Camaralzaman Gould (c. 1763-1842)\nCharlotte Gould (unknown-1839)\nCharlotte Gould (later Laws)? (1793-1861)", "1820 demographic breakdown": "1 male aged less than 14\n1 male aged 26-44\n3 males aged 45+\n2 females aged 26-44 \n1 female aged 45+", "Address Notes": "Gould bought property at this address in 1807 and then expanded his property here in 1818.", "Biographical Notes": "Camaralzaman Gould was born in Mashpee  c. 1763. His wife, Charlotte, was not from Massachusetts--we believe she was from New York. Gould moved around quite a bit before settling in Cambridge. He enlisted to fight in the Revolutionary War at Wareham, MA. His daughter, also Charlotte Gould (later Laws) was born in Shelbourne, Nova Scotia, Canada, in around 1797. When Gould was buying property in Cambridge (1807 and 1818), he was working as a soap boiler. We also know that Gould was an active voter in Cambridge; he appeared on an 1822 list of voters. Gould's wife, Charlotte, died in 1839, and Gould remarried to a young woman named Keziah M. Hill in Boston. They had at least two children together, Camaralzaman and James Alexander Gould. Little Camaralzaman died as an infant. The most detailed source we have concerning Gould is his probate records, in which he leaves his property at 348-350 Broadway to his only living child, Charlotte Laws. Interestingly, this property had previously been owned by Violet Cassimere, another Black landowner who appears on the census. At Charlotte Laws's death in Cambridgeport, the Boston Morning Sentinel described both Gould and Laws as \"for many years respected colored citizens of that city.\"", "Latitude": 42.3707657, "Longitude": -71.1050928 }, "geometry": { "type": "Point", "coordinates": [ -71.1050928, 42.3707657 ] } },
{ "type": "Feature", "properties": { "Census year": 1820, "Address": "348 Broadway", "City": "Cambridge", "State": "MA", "Country": "USA", "Historic Address": "3 West Place", "Property Owner": "Violet Casemere", "Head of Household": "Violet Casemere", "Black Head of Household": "Black Head of Household", "Black Residents": "1810: 7 people; 1820: 5 people", "Possible Names of Black Residents": "Violet Cassimere (fl. 1810-1820)\nChristina Zophrion (1806-unknown)\nNancy Cassimore? (unknown-1825)\nSusan Casimere? (c. 1816-1838)", "1820 demographic breakdown": "1 male aged 14-25\n2 females aged less than 14\n1 female aged 26-44\n1 female aged 45+ ", "Address Notes": "Cassimere bought this property in 1812, so she was living here during the 1820 census. She paid the house tax for this property in 1810, so it is very likely she was living here before she bought the property.", "Biographical Notes": "Violet Cassimere (also spelled Casemear/Cersmer/Casimir) is one of the more mysterious people that we encountered in this project. At first, we could only find her name in two locations: we found record of her paying a house tax (1810) and later purchasing the deed for the land at 348-350 Broadway (1812), and the vital records list an infant child of Violet Cassimere dying of dysentery in 1817. For a while, we could find no other information on Violet or her family. There was, however, a listing for the birth of a child, Christina Zophrion, in 1806--a daughter of Casimir and Violet. We wondered if our Violet Cassimere may have been married to Casimir Zophrion and later used his first name as her last name. We also noticed that Cassimere was being spelled differently in nearly every document--from Casemer to Casimir to Cersmer. This opened things up: we were soon able to find a marriage record for a Violet Gill marrying a Kerseymer Zephron in 1801 in Boston. We believe these to be the same Violet and Casimir Zophrion who were the parents of Christina Zophrion. The probate records of Fife Downs, a Black laborer who died with a considerable sum of money in 1809,  confirmed this hypothesis--his estate paid a debt of over $100 to a \"Violet Zephrion alias Cassimere.\" It appears that her husband, Casimir, had either died, left the family, or was absent for work at the time of both the 1810 and 1820 census. His name does not appear on either the house tax or deed associated with 348-350 Broadway. There is a single clue as to how Violet may have earned money in his absence: in 1807, she advertised her services  as a laundress in the Columbian Centinel. She asked to be contacted at the house of Peter Waters, another Black resident in Cambridge who appears in the censuses. Presumably Violet and Christina were living at 348-350 Broadway at the time of the 1810 and 1820 census; Christina would have been about 4 at the time of the 1810 census and about 14 at the time of the 1820 census, which fits into the demographics listed. It is less clear who the other people living with them would have been. One tentative connection is to Susan Casimere and Nancy Cassimore, both of whom died in Boston (in 1838 and 1825, respectively) and were listed as Black.  Because of the rarity of Cassimere as a last name, the proximity of Boston to Cambridge, and their ages,  it seems possible these were Violet Cassimere's daughters or some other relative. If so, Susan would have been born around 1816, making her likely present at the time of the 1820 census. She and Christina would have been the two girls under age 14. If Nancy were also in the household, she must have been older than 26 at this time. Nancy's death record lists no age, so we have no way of estimating whether she could have been at the Cassimere residence in 1810 or 1820. There is also a boy or young man aged 14-25 living with the family in 1820; we were unable to find any clue of who this might have been.", "Latitude": 42.3702209, "Longitude": -71.1037809 }, "geometry": { "type": "Point", "coordinates": [ -71.1037809, 42.3702209 ] } },
{ "type": "Feature", "properties": { "Census year": 1820, "Address": "20 South St.", "City": "Cambridge", "State": "MA", "Country": "USA", "Historic Address": "Marsh Lane", "Property Owner": "Charles Lenox", "Head of Household": "Charles Lenox", "Black Head of Household": "Black Head of Household", "Black Residents": "1820: 3 people", "Possible Names of Black Residents": "Charles Lenox (c.1781-1852)\nSeney (Rogers) Lenox (c.1793 -1839)\nSusan Lenox (c.1815-1837)", "1820 demographic breakdown": "1 male aged 26-44\n1 female aged 26-44\n1 female aged less than 14", "Address Notes": "Lenox bought this property in 1823. We were unable to locate his address in 1820.", "Biographical Notes": "Charles Lenox was born in Newton to parents Cornelius and Susannah Lenox. In 1811, he married Seney Rogers (also known as Cynthia/Cinthia and Sena) in Cambridge. They had at least two children: Susan, who is shown in the census, and Eliza, who was likely born in 1820 after the census was taken and died in 1822. Susan died aged 22 in 1837 and is buried in the Old Burial Ground, where her headstone stands today. Seney Rogers died a few years later in 1839, leaving Charles a widower. In the 1850 census, at age 69, Lenox was living in Cambridge with Mary Lewis (age 30) and Susan Jackson (age 9). Lenox next appears in the vital records in 1851, when he married Martha Dickerson of Watertown. Just a few months later, on the 1st of February 1852, Lenox died at the age of 71 of \"Disease of the Heart.\" On his death certificate, his occupation is listed as \"Laborer,\" but this term conceals his remarkable and varied working life. At his death, newspapers described Lenox as a \"colored man, and for many years past the porter at Harvard,\" and reported that he had left his family \"a fortune of about $20,000,\" an unusually large sum at the time. From recountings of contemporary Harvard students, we know that Lenox worked at various times as a pie seller, a boot-blacker, and a waiter around the Harvard campus. However, he made the majority of his money from loaning to other Cambridge residents--at the time of his death, he was owed more than $10,000 by various Cambridge professionals and tradesmen, including Sidney Willard, Cambridge's mayor from 1848-1851. Charles is buried next to his daughter Susan in the Old Burial Ground, although acid rain has greatly deteriorated the inscription on his marble headstone. Though Charles Lenox's story has not often been told, readers familiar with 19th century abolitionists may recognize his name: his nephew, Charles Lenox Remond of Salem, son of his sister Nancy Lenox and presumably named after Charles Lenox of Cambridge, later became one of the most influential Black abolitionists of the late 19th century. Please visit our website to find a link to a set of articles by Leslie Brunetta containing much more information on Charles Lenox.", "Latitude": 42.3712707, "Longitude": -71.1199815 }, "geometry": { "type": "Point", "coordinates": [ -71.1199815, 42.3712707 ] } },
{ "type": "Feature", "properties": { "Census year": 1820, "Address": "15 Concord Ave.", "City": "Cambridge", "State": "MA", "Country": "USA", "Historic Address": null, "Property Owner": "Adam Lewis ", "Head of Household": "Adam Lewis ", "Black Head of Household": "Black Head of Household", "Black Residents": "1820: 3 people", "Possible Names of Black Residents": "Adam Lewis (fl. 1815-1830)\nCatherine Lewis, nee Vassall (fl. 1790-1830)", "1820 demographic breakdown": "1 male aged 26-44;\n1 female aged 14-25;\n1 female aged 26-44", "Address Notes": null, "Biographical Notes": "By 1820, Adam Lewis and his wife Catherine (nee Vassall) were at the center of an extensive Black network that stretched from Cambridge into Boston. Lewis was born in 1794 to Minor Walker and Peter Lewis. Minor, his mother, was the sister of Quock Walker, whose legal battle with his enslaver in the Massachusetts Supreme Court in 1783 is now credited as one of the final cases that brought about the end of slavery in Massachusetts. Adam was one of eleven children, and most of his siblings were involved in the abolitionist movement and other civil rights causes. Lewis married Catherine Vassall in 1815. Catherine also came from a notable family; see 1656 Mass. Ave. for more on Catherine and her family. This property where the Lewises were living in 1820 was part of what was colloquially known as Lewisville. By the 1830s, Adam, most of his siblings, and his parents all owned adjacent lots in this area just north of the Common. They also constructed a family tomb on their property, which was later moved to Cambridge Cemetery. Later in their lives, Adam and Catherine moved to the Dawn Settlement in Ontario, Canada, which was established as a community of refuge for formerly enslaved people. We have been unable to find any information about Adam and Catherine’s decision to move to Canada, but it may have had to do with the passing of the Fugitive Slave Act in 1850. Other members of the Lewis family remained in Cambridge.", "Latitude": 42.3790286, "Longitude": -71.1245006 }, "geometry": { "type": "Point", "coordinates": [ -71.1245006, 42.3790286 ] } },
{ "type": "Feature", "properties": { "Census year": 1820, "Address": "170 Auburn St.", "City": "Cambridge", "State": "MA", "Country": "USA", "Historic Address": null, "Property Owner": "Martha Dana", "Head of Household": "Martha Dana", "Black Head of Household": "White Head of Household", "Black Residents": "1820: 1 person", "Possible Names of Black Residents": null, "1820 demographic breakdown": "1 female aged 14-25.", "Address Notes": null, "Biographical Notes": "We could not find any information about the Black resident at this address.", "Latitude": 42.3635676, "Longitude": -71.105386 }, "geometry": { "type": "Point", "coordinates": [ -71.105386, 42.3635676 ] } },
{ "type": "Feature", "properties": { "Census year": 1820, "Address": "5 West St.", "City": "Cambridge", "State": "MA", "Country": "USA", "Historic Address": "5 West Street", "Property Owner": "Scipio Dalton", "Head of Household": "Scipio Dalton", "Black Head of Household": "Black Head of Household", "Black Residents": "1820: 7 people", "Possible Names of Black Residents": "Scipio Dalton (c. 1750-1822)\nSylvia (Lathrop) Dalton (1788-1830)\nCatherine Dalton (later Hensen) (c.1812-1888)", "1820 demographic breakdown": "1 male aged less than 14;\n1 male aged 26-44;\n1 male aged 45+;\n2 females aged less than 14;\n1 female aged 14-25;\n1 female aged 26-44", "Address Notes": "Camaralzaman Gould (see 372 Broadway) bought this property from Dalton in 1825.", "Biographical Notes": "Scipio Dalton (listed as \"Z Dalton\" in the census) was a prominent figure in the Black community on Beacon Hill in Boston in the early 1800s, but he was living in Cambridge in the years leading up to his death in 1822. He was likely born around 1750 in Gloucester, MA. In 1779 Dalton signed an indenture contract lasting two years with Isaac Smith (uncle of Abigail Adams). In the contract Smith stipulated that Dalton would be free to leave his household in 1781, granted that he met the expectations of the contract and did not incur any extra expenses for his care (the document is available through the MA Historical Society’s website). The next record we have of Dalton was his marriage in 1783 to Phoebe Jack in Boston. This marriage did not end well; in 1794 Dalton posted an advertisement in the local paper stating that Phoebe “left my bed and board, and refuses to live with me.” He remarried in 1797 to Rosanna Haven, but Rosanna died in 1807. Dalton’s last marriage was to Sylvia Lathrop in 1811, and they remained married until his death in 1822 in Cambridge. Throughout his life Dalton lived in various Massachusetts cities, including Gloucester, Boston, Newton, and Cambridge–we found poll tax records for him in both Newton and Cambridge, which suggests that he was an active voter. Dalton is probably most well known for his leadership in several Black institutions in Boston. He was one of the founders of the African Society in 1796, the African Baptist Church in 1805 (now the home of the African American National Historical Site), the African School in 1808 (later known as the Abiel Smith School and now home of the Museum of African American History), and the African Humane Society in 1819. Dalton was also a member of the African Masonic Lodge. When Dalton died, he owned both this property in Cambridge and part of a house in Boston. Although we could not find a birth record for any of Scipio and Sylvia's children, we believe they had at least one child, Catherine Dalton (later Hensen), who, according to her death certificate, was born in 1812. This would have made her 8 at the time of this census and 10 at the time of her father's death. By the time of Sylvia's 1832 probate records, Catherine is described as the wife of Thomas Hensen. It appears they married in 1831 and later moved to New Bedford, where Catherine died at the age of 76. ", "Latitude": 42.369662, "Longitude": -71.1037603 }, "geometry": { "type": "Point", "coordinates": [ -71.1037603, 42.369662 ] } },
{ "type": "Feature", "properties": { "Census year": 1820, "Address": "139 Bishop Allen Dr.", "City": "Cambridge", "State": "MA", "Country": "USA", "Historic Address": "Austin Street", "Property Owner": "Samuel P. P. Fay ", "Head of Household": "Samuel P. P. Fay", "Black Head of Household": "White Head of Household", "Black Residents": "1820: 1 person", "Possible Names of Black Residents": null, "1820 demographic breakdown": "1 female aged 45+", "Address Notes": "There were two brick houses at this address, one occupied by Fay, and one by James P. Chaplain.", "Biographical Notes": "We could not find any information about the Black resident at this address.", "Latitude": 42.3669472, "Longitude": -71.1038892 }, "geometry": { "type": "Point", "coordinates": [ -71.1038892, 42.3669472 ] } },
{ "type": "Feature", "properties": { "Census year": 1820, "Address": "139 Bishop Allen Dr.", "City": "Cambridge", "State": "MA", "Country": "USA", "Historic Address": "Austin Street", "Property Owner": "James P. Chaplain", "Head of Household": "James P. Chaplain", "Black Head of Household": "White Head of Household", "Black Residents": "1820: 1 person", "Possible Names of Black Residents": null, "1820 demographic breakdown": "1 female aged 26-44", "Address Notes": "There were two brick houses at this address, one occupied by Chaplain, and one by Samuel P. P. Fay.", "Biographical Notes": "We could not find any information about the Black resident at this address.", "Latitude": 42.3669472, "Longitude": -71.1038892 }, "geometry": { "type": "Point", "coordinates": [ -71.1038892, 42.3669472 ] } },
{ "type": "Feature", "properties": { "Census year": 1820, "Address": "291 Medeiros Ave.", "City": "Cambridge", "State": "MA", "Country": "USA", "Historic Address": "337 Portland Street (bound by Portland, York and Berkshire Sts)", "Property Owner": "James R. Knight", "Head of Household": "James R. Knight", "Black Head of Household": "White Head of Household", "Black Residents": "1820: 1 person", "Possible Names of Black Residents": null, "1820 demographic breakdown": "1 female aged 14-25", "Address Notes": null, "Biographical Notes": "We could not find any information about the Black resident at this address.", "Latitude": 42.3690134, "Longitude": -71.0904696 }, "geometry": { "type": "Point", "coordinates": [ -71.0904696, 42.3690134 ] } },
{ "type": "Feature", "properties": { "Census year": 1820, "Address": "42 Kennedy St.", "City": "Cambridge", "State": "MA", "Country": "USA", "Historic Address": "Wood Street", "Property Owner": "William and Catherine Watson", "Head of Household": "William and Catherine Watson", "Black Head of Household": "White Head of Household", "Black Residents": "1790: 1 person;\n1810: 1 person;\n1820: 1 person", "Possible Names of Black Residents": "Venus Whittemore (c. 1725-1825)", "1820 demographic breakdown": "1 female aged 45+", "Address Notes": "William Watson owned several properties in Cambridge. We believe that the family--first listed under William Watson in 1790 and 1810 and then under his wife, Catherine Watson, in 1820--was residing at this address on what is now JFK Street, on a homestead formerly owned by William's maternal grandfather Deacon Samuel Whittemore (1693-1784). The Whittemore family had been enslavers; Samuel Whittemore reported one enslaved person in his 1749 tax records.", "Biographical Notes": "We are fairly certain that the Black woman living with the Watsons was named Venus Whittemore. A death notice for Venus Whittemore appeared in local papers in 1825, describing her as a \"colored woman, aged 107.\" This is a surprising age, and is likely a rough estimate; older people of this time–especially formerly enslaved people–often did not know their date of birth. Venus died at the Cambridge Alms-House, but there is no Black woman of her age reported at the Alms-House in the 1820 census. Instead, we suspect that she was living either with or on the property of Catherine Watson. Catherine's late husband, William Watson, had purchased Venus's labor at a Poor Auction in 1793. Furthermore, in exchange for the costs of her care, he also received a large tract of land in Cambridgeport. Many formerly enslaved people found themselves at Poor Auctions after slavery ended in Massachusetts in 1783– they were no longer legally enslaved, yet they lacked the resources to move out from under their former enslavers. Venus Whittemore was previously enslaved by Deacon Samuel Whittemore, William Watson’s maternal grandfather. William died in 1811, and it seems that his death brought even more instability to Venus’s life. In 1818, Catherine Watson attempted to force Cambridge to compensate her for the cost of supporting Venus, an argument which can be read in the Massachusetts Supreme Court records. At this time, Venus was reported to be 90 years old. The court sided with Catherine, ruling that Cambridge did owe Catherine money for the support of Venus, but then posited that William Watson’s estate (which Catherine neither controlled nor inherited) may be the party responsible for Venus’ care rather than Cambridge. There is no indication in the court’s ruling that Venus would continue to live under the support of Catherine, but it seems likely that she was still with Catherine at the time of the 1820 census and moved to the Alms-house sometime before her death in 1825.", "Latitude": 42.3725644, "Longitude": -71.120154 }, "geometry": { "type": "Point", "coordinates": [ -71.120154, 42.3725644 ] } },
{ "type": "Feature", "properties": { "Census year": 1820, "Address": "55 Brattle St.", "City": "Cambridge", "State": "MA", "Country": "USA", "Historic Address": "Spring Street", "Property Owner": "James Read Jr.", "Head of Household": "James Read Jr.", "Black Head of Household": "White Head of Household", "Black Residents": "1820: 1 person", "Possible Names of Black Residents": null, "1820 demographic breakdown": "1 male aged less than 14", "Address Notes": "We are unsure exactly where James Read was living with his family at the time of the 1810 and 1820 census. He bought a property at 17 Dunster St. in 1813, but we do not think he was living there in 1820 because someone else paid the house tax for that address in 1815. We suspect James Read may have moved into the house of his late father, also James Read (d. 1814), at what is today 55 Brattle St. See 4 Holyoke St. for James Read's 1810 address.", "Biographical Notes": "n 1820, James Read had a Black male child under the age of 14 living with him. In 1810,  Read also had one Black person living with him--if it was this same child living with him here in 1820, the boy would have been less than 4 years old in 1810. James Read was a merchant who spent time living in Tobago before returning to Cambridge in the early 1800s. See 4 Holyoke St. for James' 1810 listing.", "Latitude": 42.3746291, "Longitude": -71.1216439 }, "geometry": { "type": "Point", "coordinates": [ -71.1216439, 42.3746291 ] } },
{ "type": "Feature", "properties": { "Census year": 1820, "Address": "43 Essex St.", "City": "Cambridge", "State": "MA", "Country": "USA", "Historic Address": null, "Property Owner": "Cambridge Alms House", "Head of Household": "Cambridge Alms House", "Black Head of Household": "White Head of Household", "Black Residents": "1820: 2 people", "Possible Names of Black Residents": null, "1820 demographic breakdown": "2 males aged 45+", "Address Notes": "This almshouse was built in 1818 on an 11 acre square of land between Harvard St, Norfolk St, Austin St. (now Bishop Allen Dr.), and Prospect St. Essex St. did not yet exist at this time. The almshouse was at this location until 1836. ", "Biographical Notes": "We could not find any information about the Black residents at this address.", "Latitude": 42.3673035, "Longitude": -71.1015713 }, "geometry": { "type": "Point", "coordinates": [ -71.1015713, 42.3673035 ] } },
{ "type": "Feature", "properties": { "Census year": 1820, "Address": "10 Linden St.", "City": "Cambridge", "State": "MA", "Country": "USA", "Historic Address": null, "Property Owner": "Thomas Warland", "Head of Household": "Mary Bell", "Black Head of Household": "White Head of Household", "Black Residents": "1820: 1 person", "Possible Names of Black Residents": null, "1820 demographic breakdown": "1 female aged 14-25", "Address Notes": "This house, called both the Adams House and the Apthorp House and owned by Harvard University, is still standing at this address. ", "Biographical Notes": "Other than knowing that the Black woman at this address was between the ages of 14-25, we were unable to find any other information about her. We believe that the Mary Bell who appears on the census may be Mary Bell Warland. If so, we do know that Mary and her sisters, who all lived together in their father's house, occasionally took in boarders. It is possible that the young Black woman who lived here was either a boarder herself or worked for the Warland sisters.", "Latitude": 42.3721899, "Longitude": -71.1170115 }, "geometry": { "type": "Point", "coordinates": [ -71.1170115, 42.3721899 ] } },
{ "type": "Feature", "properties": { "Census year": 1820, "Address": "134 Mt. Auburn Street", "City": "Cambridge", "State": "MA", "Country": "USA", "Historic Address": null, "Property Owner": "Lucy Everett", "Head of Household": "Lucy Everett", "Black Head of Household": "White Head of Household", "Black Residents": "1820: 1 person", "Possible Names of Black Residents": null, "1820 demographic breakdown": "1 female aged 26-44", "Address Notes": "The property at this address was sold by Edward Everett, Lucy Everett's son, in 1834. We are unsure if Lucy was actually living at this address in 1820, but it is the closest Everett address that we could find to this time period.", "Biographical Notes": "We were unable to figure out the name of the young Black woman living with Lucy Everett. It seems that Lucy Everett lived in Cambridge only briefly; she spent most of her adult life in Boston. In the 1800 census, the Everetts were living in Dorchester and had no Black people living with them, meaning that the young woman living with Lucy in Cambridge had certainly not been living with her for long.", "Latitude": 42.3735992, "Longitude": -71.1241302 }, "geometry": { "type": "Point", "coordinates": [ -71.1241302, 42.3735992 ] } }
]
}
