{
"type": "FeatureCollection",
"name": "census1800",
"crs": { "type": "name", "properties": { "name": "urn:ogc:def:crs:OGC:1.3:CRS84" } },
"features": [
{ "type": "Feature", "properties": { "Census year": 1800, "Address": "12 Appian Way", "City": "Cambridge", "State": "MA", "Country": "USA", "Historic Address": null, "Property Owner": "Peter Waters", "Head of Household": "Peter Waters", "Black Head of Household": "Black Head of Household", "Black Residents": "1790: 3 people;\n1800: 2 people; \n1810: 3 people", "Possible Names of Black Residents": "Peter Waters (fl. 1776-1810)\nVilate (Lock) Waters (fl. 1790-1810)", "1820 demographic breakdown": null, "Address Notes": "Waters bought this property in 1806. From 1801 to 1810 Waters also owned a piece of land with a house and barn at 12 Appian Way. We are not sure where he was living in 1790 or 1800.Waters bought this property in 1801 and owned it until 1810. In 1806 he bought another property at 1531 Mass. Ave. We are not sure precisely where he was living in 1790 or 1800. See 1531 Massachusetts Ave. for Peter's 1810 address.", "Biographical Notes": "Peter Waters started working at Harvard College in 1789, and was living with his employer, Caleb Gannett, until early 1790 (see 1 Oxford St. for more about Gannett and about Waters' colleague Pompey Parsons). In a document reporting \"strangers\" (people not born in Cambridge) living with him, Caleb Gannett gave a short biography of Waters. According to Gannett, Waters was born in Maryland, fought in the Revolutionary War, and then lived in Newton, MA until 1789. Waters married Vilate Lock (of Newton) in 1790, at which point they moved into a house of their own at this address, and had a child who died aged 2 in 1792. It is likely that these are the 3 listed in the 1790 census. Vital records indicate that a 9-year-old Black girl named Christina Waters died in 1812. We are not certain, but we believe that Christina was Peter and Vilate's daughter listed with them in the 1810 census. There is no Peter Waters in the 1800 census, but there is a Bettern Waters with a household of 2 Black people. It may seem odd, but we believe this to have been a misspelling of Peter as there are no other records of anyone named Bettern in Cambridge, and this would have been before Christina was born. ", "Latitude": 42.3755093, "Longitude": -71.1215546 }, "geometry": { "type": "Point", "coordinates": [ -71.1215546, 42.3755093 ] } },
{ "type": "Feature", "properties": { "Census year": 1800, "Address": "2394 Massachusetts Ave.", "City": "Cambridge", "State": "MA", "Country": "USA", "Historic Address": null, "Property Owner": "Henry Dickenson", "Head of Household": "Henry Dickenson", "Black Head of Household": "White Head of Household", "Black Residents": "1800: 1 person", "Possible Names of Black Residents": null, "1820 demographic breakdown": null, "Address Notes": "The census lists Henry Dickenson, but there are no other records of Dickensons in Cambridge in 1810. There was a Henry Dickson at this address until his death in 1815.", "Biographical Notes": "We could not find any information about the Black resident at this address.", "Latitude": 42.3969442, "Longitude": -71.1300529 }, "geometry": { "type": "Point", "coordinates": [ -71.1300529, 42.3969442 ] } },
{ "type": "Feature", "properties": { "Census year": 1800, "Address": "724 Main St.", "City": "Cambridge", "State": "MA", "Country": "USA", "Historic Address": "Causeway", "Property Owner": "Robert Vose", "Head of Household": "Robert Vose", "Black Head of Household": "White Head of Household", "Black Residents": "1800: 1 person", "Possible Names of Black Residents": null, "1820 demographic breakdown": null, "Address Notes": "Robert Vose was part of a business partnership with Royal Makepeace that bought and developed a lot of property in Cambridgeport. At this address Vose and Makepeace built both a store and a dwelling house a few years before 1800. We were unable to determine which of his properties Vose occupied, but in order to include him on this map we have marked him here. ", "Biographical Notes": "We could not find any information about the Black resident at this address.", "Latitude": 42.362928, "Longitude": -71.0954338 }, "geometry": { "type": "Point", "coordinates": [ -71.0954338, 42.362928 ] } },
{ "type": "Feature", "properties": { "Census year": 1800, "Address": "975 Massachusetts Ave.", "City": "Cambridge", "State": "MA", "Country": "USA", "Historic Address": null, "Property Owner": "Judge Francis Dana", "Head of Household": "Judge Francis Dana", "Black Head of Household": "White Head of Household", "Black Residents": "1800: 2 people", "Possible Names of Black Residents": "Dinah (c.1746 -1802)", "1820 demographic breakdown": null, "Address Notes": null, "Biographical Notes": "Judge Francis Dana was a big--and wealthy--political figure of the time, and likely had servants living in his house. Christ Church recorded that a woman named Dinah, listed as \"a negro at Judge Dana's,\" died at age 56 in 1802, suggesting that she was one of the two Black people living with Dana in 1800. We were unable to find any other personal details about Dinah, other than that she passed away of cancer. ", "Latitude": 42.369271, "Longitude": -71.1102885 }, "geometry": { "type": "Point", "coordinates": [ -71.1102885, 42.369271 ] } }
]
}
